1 08820U 76039A   03043.77925505 -.00000007  00000-0  10000-3 0  9164
2 08820 109.8296 139.0055 0044321 328.0724  31.7270  6.38664633369113
